STARLINK-36073          
1 66844U 25280Z   25357.10419377  .00059774  00000+0  96566-3 0  9995
2 66844  70.0003 169.9774 0003307 273.6228  86.4581 15.52558910  4519
STARLINK-36068          
1 66845U 25280AA  25357.10282544  .00103760  00000+0  16658-2 0  9998
2 66845  70.0007 169.9714 0003139 283.1913  76.8924 15.52545165  4543
STARLINK-36055          
1 66846U 25280AB  25357.10350858  .00042132  00000+0  68364-3 0  9990
2 66846  70.0007 169.9738 0003294 271.6905  88.3905 15.52531238  4548
STARLINK-36061          
1 66847U 25280AC  25357.10316810  .00094906  00000+0  15270-2 0  9994
2 66847  70.0007 169.9730 0002974 282.9981  77.0873 15.52521255  4541
STARLINK-36091          
1 66848U 25281A   25357.16668980 -.01984004  00000+0 -23894-1 0  9990
2 66848  43.0001  58.8474 0001166 279.3949 145.9442 15.63283106  3068
STARLINK-36102          
1 66849U 25281B   25357.16668980 -.01985604  00000+0 -23915-1 0  9992
2 66849  43.0003  58.8421 0001146 276.4201 150.8361 15.63284155  3060
STARLINK-36105          
1 66850U 25281C   25357.16668980 -.01990573  00000+0 -23981-1 0  9998
2 66850  43.0003  58.8375 0001089 277.0462 152.1265 15.63287173  3063
STARLINK-36094          
1 66851U 25281D   25357.16668980 -.01986447  00000+0 -23926-1 0  9993
2 66851  43.0002  58.8323 0001081 282.9202 148.1675 15.63285783  3060
STARLINK-35992          
1 66852U 25281E   25357.16668980 -.01979873  00000+0 -23841-1 0  9995
2 66852  43.0002  58.8278 0001120 281.8334 151.1734 15.63280499  3067
STARLINK-35986          
1 66853U 25281F   25357.16668980 -.01973531  00000+0 -23756-1 0  9996
2 66853  43.0003  58.8228 0001188 284.2402 150.6826 15.63277132  3067
STARLINK-36087          
1 66854U 25281G   25357.16668980 -.01976269  00000+0 -23792-1 0  9998
2 66854  43.0002  58.8176 0001215 280.5330 156.3073 15.63278907  3067
STARLINK-36090          
1 66855U 25281H   25357.16668980 -.01971780  00000+0 -23734-1 0  9998
2 66855  43.0003  58.8128 0001105 278.9197 159.8386 15.63276063  2948
