CCSDS_OMM_VERS = 2.0
CREATION_DATE  = 
ORIGINATOR     = 

OBJECT_NAME    = STARLINK-36073
OBJECT_ID      = 2025-280Z
CENTER_NAME    = EARTH
REF_FRAME      = TEME
TIME_SYSTEM    = UTC
MEAN_ELEMENT_THEORY = SGP/SGP4

EPOCH          = 2025-12-23T02:30:02.341728
MEAN_MOTION    = 15.52558910
ECCENTRICITY   = .0003307
INCLINATION    = 70.0003
RA_OF_ASC_NODE = 169.9774
ARG_OF_PERICENTER = 273.6228
MEAN_ANOMALY   = 86.4581

EPHEMERIS_TYPE = 0
CLASSIFICATION_TYPE = U
NORAD_CAT_ID   = 66844
ELEMENT_SET_NO = 999
REV_AT_EPOCH   = 451
BSTAR          = .96566E-3
MEAN_MOTION_DOT = .59774E-3
MEAN_MOTION_DDOT = 0

CCSDS_OMM_VERS = 2.0
CREATION_DATE  = 
ORIGINATOR     = 

OBJECT_NAME    = STARLINK-36068
OBJECT_ID      = 2025-280AA
CENTER_NAME    = EARTH
REF_FRAME      = TEME
TIME_SYSTEM    = UTC
MEAN_ELEMENT_THEORY = SGP/SGP4

EPOCH          = 2025-12-23T02:28:04.118016
MEAN_MOTION    = 15.52545165
ECCENTRICITY   = .0003139
INCLINATION    = 70.0007
RA_OF_ASC_NODE = 169.9714
ARG_OF_PERICENTER = 283.1913
MEAN_ANOMALY   = 76.8924

EPHEMERIS_TYPE = 0
CLASSIFICATION_TYPE = U
NORAD_CAT_ID   = 66845
ELEMENT_SET_NO = 999
REV_AT_EPOCH   = 454
BSTAR          = .16658E-2
MEAN_MOTION_DOT = .10376E-2
MEAN_MOTION_DDOT = 0

CCSDS_OMM_VERS = 2.0
CREATION_DATE  = 
ORIGINATOR     = 

OBJECT_NAME    = STARLINK-36055
OBJECT_ID      = 2025-280AB
CENTER_NAME    = EARTH
REF_FRAME      = TEME
TIME_SYSTEM    = UTC
MEAN_ELEMENT_THEORY = SGP/SGP4

EPOCH          = 2025-12-23T02:29:03.141312
MEAN_MOTION    = 15.52531238
ECCENTRICITY   = .0003294
INCLINATION    = 70.0007
RA_OF_ASC_NODE = 169.9738
ARG_OF_PERICENTER = 271.6905
MEAN_ANOMALY   = 88.3905

EPHEMERIS_TYPE = 0
CLASSIFICATION_TYPE = U
NORAD_CAT_ID   = 66846
ELEMENT_SET_NO = 999
REV_AT_EPOCH   = 454
BSTAR          = .68364E-3
MEAN_MOTION_DOT = .42132E-3
MEAN_MOTION_DDOT = 0

CCSDS_OMM_VERS = 2.0
CREATION_DATE  = 
ORIGINATOR     = 

OBJECT_NAME    = STARLINK-36061
OBJECT_ID      = 2025-280AC
CENTER_NAME    = EARTH
REF_FRAME      = TEME
TIME_SYSTEM    = UTC
MEAN_ELEMENT_THEORY = SGP/SGP4

EPOCH          = 2025-12-23T02:28:33.723840
MEAN_MOTION    = 15.52521255
ECCENTRICITY   = .0002974
INCLINATION    = 70.0007
RA_OF_ASC_NODE = 169.9730
ARG_OF_PERICENTER = 282.9981
MEAN_ANOMALY   = 77.0873

EPHEMERIS_TYPE = 0
CLASSIFICATION_TYPE = U
NORAD_CAT_ID   = 66847
ELEMENT_SET_NO = 999
REV_AT_EPOCH   = 454
BSTAR          = .1527E-2
MEAN_MOTION_DOT = .94906E-3
MEAN_MOTION_DDOT = 0

CCSDS_OMM_VERS = 2.0
CREATION_DATE  = 
ORIGINATOR     = 

OBJECT_NAME    = STARLINK-36091
OBJECT_ID      = 2025-281A
CENTER_NAME    = EARTH
REF_FRAME      = TEME
TIME_SYSTEM    = UTC
MEAN_ELEMENT_THEORY = SGP/SGP4

EPOCH          = 2025-12-23T04:00:01.998720
MEAN_MOTION    = 15.63283106
ECCENTRICITY   = .0001166
INCLINATION    = 43.0001
RA_OF_ASC_NODE = 58.8474
ARG_OF_PERICENTER = 279.3949
MEAN_ANOMALY   = 145.9442

EPHEMERIS_TYPE = 0
CLASSIFICATION_TYPE = U
NORAD_CAT_ID   = 66848
ELEMENT_SET_NO = 999
REV_AT_EPOCH   = 306
BSTAR          = -.23894E-1
MEAN_MOTION_DOT = -.1984004E-1
MEAN_MOTION_DDOT = 0

CCSDS_OMM_VERS = 2.0
CREATION_DATE  = 
ORIGINATOR     = 

OBJECT_NAME    = STARLINK-36102
OBJECT_ID      = 2025-281B
CENTER_NAME    = EARTH
REF_FRAME      = TEME
TIME_SYSTEM    = UTC
MEAN_ELEMENT_THEORY = SGP/SGP4

EPOCH          = 2025-12-23T04:00:01.998720
MEAN_MOTION    = 15.63284155
ECCENTRICITY   = .0001146
INCLINATION    = 43.0003
RA_OF_ASC_NODE = 58.8421
ARG_OF_PERICENTER = 276.4201
MEAN_ANOMALY   = 150.8361

EPHEMERIS_TYPE = 0
CLASSIFICATION_TYPE = U
NORAD_CAT_ID   = 66849
ELEMENT_SET_NO = 999
REV_AT_EPOCH   = 306
BSTAR          = -.23915E-1
MEAN_MOTION_DOT = -.1985604E-1
MEAN_MOTION_DDOT = 0

CCSDS_OMM_VERS = 2.0
CREATION_DATE  = 
ORIGINATOR     = 

OBJECT_NAME    = STARLINK-36105
OBJECT_ID      = 2025-281C
CENTER_NAME    = EARTH
REF_FRAME      = TEME
TIME_SYSTEM    = UTC
MEAN_ELEMENT_THEORY = SGP/SGP4

EPOCH          = 2025-12-23T04:00:01.998720
MEAN_MOTION    = 15.63287173
ECCENTRICITY   = .0001089
INCLINATION    = 43.0003
RA_OF_ASC_NODE = 58.8375
ARG_OF_PERICENTER = 277.0462
MEAN_ANOMALY   = 152.1265

EPHEMERIS_TYPE = 0
CLASSIFICATION_TYPE = U
NORAD_CAT_ID   = 66850
ELEMENT_SET_NO = 999
REV_AT_EPOCH   = 306
BSTAR          = -.23981E-1
MEAN_MOTION_DOT = -.1990573E-1
MEAN_MOTION_DDOT = 0

CCSDS_OMM_VERS = 2.0
CREATION_DATE  = 
ORIGINATOR     = 

OBJECT_NAME    = STARLINK-36094
OBJECT_ID      = 2025-281D
CENTER_NAME    = EARTH
REF_FRAME      = TEME
TIME_SYSTEM    = UTC
MEAN_ELEMENT_THEORY = SGP/SGP4

EPOCH          = 2025-12-23T04:00:01.998720
MEAN_MOTION    = 15.63285783
ECCENTRICITY   = .0001081
INCLINATION    = 43.0002
RA_OF_ASC_NODE = 58.8323
ARG_OF_PERICENTER = 282.9202
MEAN_ANOMALY   = 148.1675

EPHEMERIS_TYPE = 0
CLASSIFICATION_TYPE = U
NORAD_CAT_ID   = 66851
ELEMENT_SET_NO = 999
REV_AT_EPOCH   = 306
BSTAR          = -.23926E-1
MEAN_MOTION_DOT = -.1986447E-1
MEAN_MOTION_DDOT = 0

CCSDS_OMM_VERS = 2.0
CREATION_DATE  = 
ORIGINATOR     = 

OBJECT_NAME    = STARLINK-35992
OBJECT_ID      = 2025-281E
CENTER_NAME    = EARTH
REF_FRAME      = TEME
TIME_SYSTEM    = UTC
MEAN_ELEMENT_THEORY = SGP/SGP4

EPOCH          = 2025-12-23T04:00:01.998720
MEAN_MOTION    = 15.63280499
ECCENTRICITY   = .000112
INCLINATION    = 43.0002
RA_OF_ASC_NODE = 58.8278
ARG_OF_PERICENTER = 281.8334
MEAN_ANOMALY   = 151.1734

EPHEMERIS_TYPE = 0
CLASSIFICATION_TYPE = U
NORAD_CAT_ID   = 66852
ELEMENT_SET_NO = 999
REV_AT_EPOCH   = 306
BSTAR          = -.23841E-1
MEAN_MOTION_DOT = -.1979873E-1
MEAN_MOTION_DDOT = 0

CCSDS_OMM_VERS = 2.0
CREATION_DATE  = 
ORIGINATOR     = 

OBJECT_NAME    = STARLINK-35986
OBJECT_ID      = 2025-281F
CENTER_NAME    = EARTH
REF_FRAME      = TEME
TIME_SYSTEM    = UTC
MEAN_ELEMENT_THEORY = SGP/SGP4

EPOCH          = 2025-12-23T04:00:01.998720
MEAN_MOTION    = 15.63277132
ECCENTRICITY   = .0001188
INCLINATION    = 43.0003
RA_OF_ASC_NODE = 58.8228
ARG_OF_PERICENTER = 284.2402
MEAN_ANOMALY   = 150.6826

EPHEMERIS_TYPE = 0
CLASSIFICATION_TYPE = U
NORAD_CAT_ID   = 66853
ELEMENT_SET_NO = 999
REV_AT_EPOCH   = 306
BSTAR          = -.23756E-1
MEAN_MOTION_DOT = -.1973531E-1
MEAN_MOTION_DDOT = 0

CCSDS_OMM_VERS = 2.0
CREATION_DATE  = 
ORIGINATOR     = 

OBJECT_NAME    = STARLINK-36087
OBJECT_ID      = 2025-281G
CENTER_NAME    = EARTH
REF_FRAME      = TEME
TIME_SYSTEM    = UTC
MEAN_ELEMENT_THEORY = SGP/SGP4

EPOCH          = 2025-12-23T04:00:01.998720
MEAN_MOTION    = 15.63278907
ECCENTRICITY   = .0001215
INCLINATION    = 43.0002
RA_OF_ASC_NODE = 58.8176
ARG_OF_PERICENTER = 280.5330
MEAN_ANOMALY   = 156.3073

EPHEMERIS_TYPE = 0
CLASSIFICATION_TYPE = U
NORAD_CAT_ID   = 66854
ELEMENT_SET_NO = 999
REV_AT_EPOCH   = 306
BSTAR          = -.23792E-1
MEAN_MOTION_DOT = -.1976269E-1
MEAN_MOTION_DDOT = 0

CCSDS_OMM_VERS = 2.0
CREATION_DATE  = 
ORIGINATOR     = 

OBJECT_NAME    = STARLINK-36090
OBJECT_ID      = 2025-281H
CENTER_NAME    = EARTH
REF_FRAME      = TEME
TIME_SYSTEM    = UTC
MEAN_ELEMENT_THEORY = SGP/SGP4

EPOCH          = 2025-12-23T04:00:01.998720
MEAN_MOTION    = 15.63276063
ECCENTRICITY   = .0001105
INCLINATION    = 43.0003
RA_OF_ASC_NODE = 58.8128
ARG_OF_PERICENTER = 278.9197
MEAN_ANOMALY   = 159.8386

EPHEMERIS_TYPE = 0
CLASSIFICATION_TYPE = U
NORAD_CAT_ID   = 66855
ELEMENT_SET_NO = 999
REV_AT_EPOCH   = 294
BSTAR          = -.23734E-1
MEAN_MOTION_DOT = -.197178E-1
MEAN_MOTION_DDOT = 0

